{"type": "FeatureCollection", "features": [ {"type": "Feature", "properties": {"norad_id": 35287, "name": "COSMOS 2251 DEB", "group": "cosmos-2251-debris", "lat": 30.711307479170415, "lon": -70.69942712447335, "alt_km": 756.457693283227, "timestamp": "2025-12-10T21:43:22.487095+00:00", "meta": {"OBJECT_NAME": "COSMOS 2251 DEB", "OBJECT_ID": "1993-036AJR", "EPOCH": "2025-12-10T14:03:04.398048", "MEAN_MOTION": 14.36373479, "ECCENTRICITY": 0.00174634, "INCLINATION": 74.0305, "RA_OF_ASC_NODE": 280.094, "ARG_OF_PERICENTER": 17.3808, "MEAN_ANOMALY": 162.5, "EPHEMERIS_TYPE": 0, "CLASSIFICATION_TYPE": "U", "NORAD_CAT_ID": 35287, "ELEMENT_SET_NO": 999, "REV_AT_EPOCH": 86861, "BSTAR": 0.00024410503, "MEAN_MOTION_DOT": 6.9e-06, "MEAN_MOTION_DDOT": 0}, "tle": {"line1": "1 35287U 93036AJR 25344.58546757  .00000690  00000+0  24411-3 0  9990", "line2": "2 35287  74.0305 280.0940 0017463  17.3808 162.5000 14.36373479868617"}}, "geometry": {"type": "Point", "coordinates": [-70.69942712447335, 30.711307479170415]}}, {"type": "Feature", "properties": {"norad_id": 35288, "name": "COSMOS 2251 DEB", "group": "cosmos-2251-debris", "lat": -8.544959173498974, "lon": 16.24491666913674, "alt_km": 683.5527778805426, "timestamp": "2025-12-10T21:43:22.487105+00:00", "meta": {"OBJECT_NAME": "COSMOS 2251 DEB", "OBJECT_ID": "1993-036AJS", "EPOCH": "2025-12-10T08:39:21.633984", "MEAN_MOTION": 14.65413781, "ECCENTRICITY": 0.00395397, "INCLINATION": 73.951, "RA_OF_ASC_NODE": 19.7768, "ARG_OF_PERICENTER": 253.6203, "MEAN_ANOMALY": 106.0616, "EPHEMERIS_TYPE": 0, "CLASSIFICATION_TYPE": "U", "NORAD_CAT_ID": 35288, "ELEMENT_SET_NO": 999, "REV_AT_EPOCH": 87843, "BSTAR": 0.0015164998, "MEAN_MOTION_DOT": 8.275e-05, "MEAN_MOTION_DDOT": 0}, "tle": {"line1": "1 35288U 93036AJS 25344.36066706  .00008275  00000+0  15165-2 0  9990", "line2": "2 35288  73.9510  19.7768 0039539 253.6203 106.0616 14.65413781878431"}}, "geometry": {"type": "Point", "coordinates": [16.24491666913674, -8.544959173498974]}}, {"type": "Feature", "properties": {"norad_id": 35290, "name": "COSMOS 2251 DEB", "group": "cosmos-2251-debris", "lat": 8.041046814153, "lon": -119.2652370671258, "alt_km": 628.3784750223667, "timestamp": "2025-12-10T21:43:22.487115+00:00", "meta": {"OBJECT_NAME": "COSMOS 2251 DEB", "OBJECT_ID": "1993-036AJU", "EPOCH": "2025-12-09T15:45:15.254784", "MEAN_MOTION": 14.80228211, "ECCENTRICITY": 0.00025765, "INCLINATION": 74.005, "RA_OF_ASC_NODE": 65.5213, "ARG_OF_PERICENTER": 202.4691, "MEAN_ANOMALY": 157.6373, "EPHEMERIS_TYPE": 0, "CLASSIFICATION_TYPE": "U", "NORAD_CAT_ID": 35290, "ELEMENT_SET_NO": 999, "REV_AT_EPOCH": 87912, "BSTAR": 0.0031261297, "MEAN_MOTION_DOT": 0.00023834, "MEAN_MOTION_DDOT": 0}, "tle": {"line1": "1 35290U 93036AJU 25343.65642656  .00023834  00000+0  31261-2 0  9991", "line2": "2 35290  74.0050  65.5213 0002576 202.4691 157.6373 14.80228211879121"}}, "geometry": {"type": "Point", "coordinates": [-119.2652370671258, 8.041046814153]}}, {"type": "Feature", "properties": {"norad_id": 35432, "name": "COSMOS 2251 DEB", "group": "cosmos-2251-debris", "lat": 53.62347607072592, "lon": 176.52807850896266, "alt_km": 500.0192098161042, "timestamp": "2025-12-10T21:43:22.487125+00:00", "meta": {"OBJECT_NAME": "COSMOS 2251 DEB", "OBJECT_ID": "1993-036AKA", "EPOCH": "2025-12-10T02:15:21.827232", "MEAN_MOTION": 15.22051238, "ECCENTRICITY": 0.00123831, "INCLINATION": 74.0231, "RA_OF_ASC_NODE": 21.1234, "ARG_OF_PERICENTER": 344.9904, "MEAN_ANOMALY": 15.0925, "EPHEMERIS_TYPE": 0, "CLASSIFICATION_TYPE": "U", "NORAD_CAT_ID": 35432, "ELEMENT_SET_NO": 999, "REV_AT_EPOCH": 87463, "BSTAR": 0.0070593041, "MEAN_MOTION_DOT": 0.00165457, "MEAN_MOTION_DDOT": 0}, "tle": {"line1": "1 35432U 93036AKA 25344.09400263  .00165457  00000+0  70593-2 0  9993", "line2": "2 35432  74.0231  21.1234 0012383 344.9904  15.0925 15.22051238874638"}}, "geometry": {"type": "Point", "coordinates": [176.52807850896266, 53.62347607072592]}}, {"type": "Feature", "properties": {"norad_id": 35433, "name": "COSMOS 2251 DEB", "group": "cosmos-2251-debris", "lat": 18.06224868433972, "lon": 156.4535931591601, "alt_km": 785.8548040156356, "timestamp": "2025-12-10T21:43:22.487136+00:00", "meta": {"OBJECT_NAME": "COSMOS 2251 DEB", "OBJECT_ID": "1993-036AKB", "EPOCH": "2025-12-05T19:38:16.327392", "MEAN_MOTION": 14.34730306, "ECCENTRICITY": 0.00254596, "INCLINATION": 74.0335, "RA_OF_ASC_NODE": 351.128, "ARG_OF_PERICENTER": 48.4343, "MEAN_ANOMALY": 128.9694, "EPHEMERIS_TYPE": 0, "CLASSIFICATION_TYPE": "U", "NORAD_CAT_ID": 35433, "ELEMENT_SET_NO": 999, "REV_AT_EPOCH": 86481, "BSTAR": 0.00044039966, "MEAN_MOTION_DOT": 1.226e-05, "MEAN_MOTION_DDOT": 0}, "tle": {"line1": "1 35433U 93036AKB 25339.81824453  .00001226  00000+0  44040-3 0  9991", "line2": "2 35433  74.0335 351.1280 0025459  48.4343 128.9694 14.34730306864810"}}, "geometry": {"type": "Point", "coordinates": [156.4535931591601, 18.06224868433972]}}, {"type": "Feature", "properties": {"norad_id": 35434, "name": "COSMOS 2251 DEB", "group": "cosmos-2251-debris", "lat": 42.62285414774882, "lon": 21.667752636727617, "alt_km": 858.2057984074772, "timestamp": "2025-12-10T21:43:22.487146+00:00", "meta": {"OBJECT_NAME": "COSMOS 2251 DEB", "OBJECT_ID": "1993-036AKC", "EPOCH": "2025-12-10T09:17:45.920256", "MEAN_MOTION": 14.25676993, "ECCENTRICITY": 0.00875285, "INCLINATION": 74.0403, "RA_OF_ASC_NODE": 217.8712, "ARG_OF_PERICENTER": 289.0938, "MEAN_ANOMALY": 70.0746, "EPHEMERIS_TYPE": 0, "CLASSIFICATION_TYPE": "U", "NORAD_CAT_ID": 35434, "ELEMENT_SET_NO": 999, "REV_AT_EPOCH": 86084, "BSTAR": 0.00089339487, "MEAN_MOTION_DOT": 2.18e-05, "MEAN_MOTION_DDOT": 0}, "tle": {"line1": "1 35434U 93036AKC 25344.38733704  .00002180  00000+0  89339-3 0  9998", "line2": "2 35434  74.0403 217.8712 0087528 289.0938  70.0746 14.25676993860848"}}, "geometry": {"type": "Point", "coordinates": [21.667752636727617, 42.62285414774882]}}, {"type": "Feature", "properties": {"norad_id": 35435, "name": "COSMOS 2251 DEB", "group": "cosmos-2251-debris", "lat": -18.854104098643806, "lon": 102.05806552255947, "alt_km": 643.6936122930183, "timestamp": "2025-12-10T21:43:22.487157+00:00", "meta": {"OBJECT_NAME": "COSMOS 2251 DEB", "OBJECT_ID": "1993-036AKD", "EPOCH": "2025-12-09T15:01:26.253984", "MEAN_MOTION": 14.78296996, "ECCENTRICITY": 0.0008431, "INCLINATION": 74.0096, "RA_OF_ASC_NODE": 110.1934, "ARG_OF_PERICENTER": 204.3804, "MEAN_ANOMALY": 171.3838, "EPHEMERIS_TYPE": 0, "CLASSIFICATION_TYPE": "U", "NORAD_CAT_ID": 35435, "ELEMENT_SET_NO": 999, "REV_AT_EPOCH": 87493, "BSTAR": 0.0036525, "MEAN_MOTION_DOT": 0.00026633, "MEAN_MOTION_DDOT": 0}, "tle": {"line1": "1 35435U 93036AKD 25343.62599831  .00026633  00000+0  36525-2 0  9993", "line2": "2 35435  74.0096 110.1934 0008431 204.3804 171.3838 14.78296996874937"}}, "geometry": {"type": "Point", "coordinates": [102.05806552255947, -18.854104098643806]}}, {"type": "Feature", "properties": {"norad_id": 35439, "name": "COSMOS 2251 DEB", "group": "cosmos-2251-debris", "lat": 60.459316854359884, "lon": -72.49124300698641, "alt_km": 1084.6997482660336, "timestamp": "2025-12-10T21:43:22.487167+00:00", "meta": {"OBJECT_NAME": "COSMOS 2251 DEB", "OBJECT_ID": "1993-036AKH", "EPOCH": "2025-12-09T17:39:24.182784", "MEAN_MOTION": 13.92788449, "ECCENTRICITY": 0.02417896, "INCLINATION": 74.0194, "RA_OF_ASC_NODE": 139.886, "ARG_OF_PERICENTER": 309.8567, "MEAN_ANOMALY": 63.37, "EPHEMERIS_TYPE": 0, "CLASSIFICATION_TYPE": "U", "NORAD_CAT_ID": 35439, "ELEMENT_SET_NO": 999, "REV_AT_EPOCH": 83919, "BSTAR": 0.0021895802, "MEAN_MOTION_DOT": 3.579e-05, "MEAN_MOTION_DDOT": 0}, "tle": {"line1": "1 35439U 93036AKH 25343.73569656  .00003579  00000+0  21896-2 0  9990", "line2": "2 35439  74.0194 139.8860 0241789 309.8567  63.3700 13.92788449839199"}}, "geometry": {"type": "Point", "coordinates": [-72.49124300698641, 60.459316854359884]}}, {"type": "Feature", "properties": {"norad_id": 35440, "name": "COSMOS 2251 DEB", "group": "cosmos-2251-debris", "lat": 42.36975856147322, "lon": -133.66054928525818, "alt_km": 630.9599462050055, "timestamp": "2025-12-10T21:43:22.487177+00:00", "meta": {"OBJECT_NAME": "COSMOS 2251 DEB", "OBJECT_ID": "1993-036AKJ", "EPOCH": "2025-12-10T08:26:45.842208", "MEAN_MOTION": 14.68793955, "ECCENTRICITY": 0.00692048, "INCLINATION": 74.0146, "RA_OF_ASC_NODE": 212.2531, "ARG_OF_PERICENTER": 353.6751, "MEAN_ANOMALY": 6.3537, "EPHEMERIS_TYPE": 0, "CLASSIFICATION_TYPE": "U", "NORAD_CAT_ID": 35440, "ELEMENT_SET_NO": 999, "REV_AT_EPOCH": 68730, "BSTAR": 0.0006737672, "MEAN_MOTION_DOT": 4.046e-05, "MEAN_MOTION_DDOT": 0}, "tle": {"line1": "1 35440U 93036AKJ 25344.35191947  .00004046  00000+0  67377-3 0  9990", "line2": "2 35440  74.0146 212.2531 0069204 353.6751   6.3537 14.68793955687302"}}, "geometry": {"type": "Point", "coordinates": [-133.66054928525818, 42.36975856147322]}}, {"type": "Feature", "properties": {"norad_id": 35441, "name": "COSMOS 2251 DEB", "group": "cosmos-2251-debris", "lat": 36.852162018767686, "lon": -46.09692596138765, "alt_km": 706.8069210842141, "timestamp": "2025-12-10T21:43:22.487188+00:00", "meta": {"OBJECT_NAME": "COSMOS 2251 DEB", "OBJECT_ID": "1993-036AKK", "EPOCH": "2025-12-08T15:22:12.064224", "MEAN_MOTION": 14.62488563, "ECCENTRICITY": 0.0037245, "INCLINATION": 74.1346, "RA_OF_ASC_NODE": 305.9066, "ARG_OF_PERICENTER": 204.2337, "MEAN_ANOMALY": 155.708, "EPHEMERIS_TYPE": 0, "CLASSIFICATION_TYPE": "U", "NORAD_CAT_ID": 35441, "ELEMENT_SET_NO": 999, "REV_AT_EPOCH": 87370, "BSTAR": 0.0024987, "MEAN_MOTION_DOT": 0.00012785, "MEAN_MOTION_DDOT": 0}, "tle": {"line1": "1 35441U 93036AKK 25342.64041741  .00012785  00000+0  24987-2 0  9995", "line2": "2 35441  74.1346 305.9066 0037245 204.2337 155.7080 14.62488563873703"}}, "geometry": {"type": "Point", "coordinates": [-46.09692596138765, 36.852162018767686]}}]}